#cP2023 11 20  0  0  0.00000000      96 ORBIT IGS20 HLM  IGS
## 2289  86400.00000000   900.00000000 60268 0.0000000000000
+   32   G01G02G03G04G05G06G07G08G09G10G11G12G13G14G15G16G17
+        G18G19G20G21G22G23G24G25G26G27G28G29G30G31G32  0  0
+          0  0  0  0  0  0  0  0  0  0  0  0  0  0  0  0  0
+          0  0  0  0  0  0  0  0  0  0  0  0  0  0  0  0  0
+          0  0  0  0  0  0  0  0  0  0  0  0  0  0  0  0  0
++         4  2  2  2  2  2  2  2  2  2  2  2  2  3  2  2  2
++         2  2  2  2  2  2  2  3  2  2  2  2  2  2  2  0  0
++         0  0  0  0  0  0  0  0  0  0  0  0  0  0  0  0  0
++         0  0  0  0  0  0  0  0  0  0  0  0  0  0  0  0  0
++         0  0  0  0  0  0  0  0  0  0  0  0  0  0  0  0  0
%c G  cc GPS ccc cccc cccc cccc cccc ccccc ccccc ccccc ccccc
%c cc cc ccc ccc cccc cccc cccc cccc ccccc ccccc ccccc ccccc
%f  1.2500000  1.025000000  0.00000000000  0.000000000000000
%f  0.0000000  0.000000000  0.00000000000  0.000000000000000
%i    0    0    0    0      0      0      0      0         0
%i    0    0    0    0      0      0      0      0         0
/* RAPID ORBIT COMBINATION FROM WEIGHTED AVERAGE OF:        
/* cod emr esa gfz grg jgx jpl ngs sio usn whu              
/* REFERENCED TO IGS TIME (IGST) AND TO WEIGHTED MEAN POLE: 
/* PCV:IGS20      OL/AL:FES2014b NONE     Y  ORB:CMB CLK:CMB
*  2023 11 20  3 45  0.00000000
PG01  15159.339013   1624.617493  21454.003640    163.226774 10  8  8 120       
PG02  17356.271463   6856.832552  19483.259647   -526.634148  6  3  5 105       
PG03  20560.947559  -8245.249978  14425.107875     -2.354944  6  5  2  80       
PG04  25099.613768      2.527115  -8875.991671    217.673494  9  5  5  93       
PG05 -15403.858427  -4413.428402 -21377.660089   -151.052045  5  6  3 122       
PG06  -5783.702179 -25696.492563   3059.164833    501.240836  5  4  3  96       
PG07   8299.106038 -16775.089453 -18180.636175      8.891730  6  3  5  86       
PG08  26299.985339   5095.050922   -297.405445   -152.953587  7  5  2  84       
PG09  18416.398782  -8754.060209 -17140.214274      2.251680  5  5  4  94       
PG10  -7583.458861  21621.953531  13331.049341    -62.089317  4  5  4 113       
PG11 -12037.841914 -22080.625961  -8602.699085   -467.503399  5  6  4  86       
PG12 -20926.715697   5597.665345  15041.893915   -448.877313  5  6  7 125       
PG13 -21459.299152 -13773.009412  -8020.297688    597.148617  5  9  5  96       
PG14  11053.348024 -21888.186344  10006.046549    248.195085  7  8  6 104       
PG15 -26589.107769  -2177.412550   -517.984710     98.860150  6  6  5 105       
PG16  10929.954408  10725.537890 -22025.769621   -418.990839  6  5  7 106       
PG17   4110.658934 -14615.258704  22230.154652    723.047186  2  5  4  82       
PG18  -7149.059123  18266.013911 -17807.341023   -484.075972  8  9  7 109       
PG19  -6274.586845 -16386.421459  19851.091025    401.317237  5  6  5  84       
PG20  -6931.832201 -15875.278940 -20132.412021    400.741069  5  7  5  92       
PG21  17791.549148  10866.751918  17480.401318    143.800303  5  5  4 113       
PG22   5650.019573 -20636.723432  16364.763550     80.700307  4  8  7  85       
PG23 -16487.819709  20648.971529   1365.163656    101.878720  8  9  6 103       
PG24 -17599.878241  -6023.632593  18707.266006   -375.318786  4  4  6 110       
PG25 -19712.085694  16660.325302   5298.341323    478.140598  8  9  6 122       
PG26   3829.667767  18077.932817 -19087.011732    215.409098  4  6  3  98       
PG27  19901.960756  13046.731229 -12481.283864    -72.345668  5  4  4 106       
PG28   5411.083641  25513.239400   5005.799229    -50.189244  4  6  6 111       
PG29 -19385.020994   6350.460441 -17108.702845   -610.186644  5  4  5 120       
PG30   1047.857050 -23921.596922 -11084.949356   -466.383709  7  5  3 106       
PG31  10045.570321  24049.864671  -3974.211233   -225.906817  7  7  3 102       
PG32   1207.508186  15685.312193  21606.240393   -587.737444  3  5  4 103       
*  2023 11 20  4  0  0.00000000
PG01  15902.982471   3977.287158  20635.299368    163.226861  9  9  6 112       
PG02  18102.509236   8759.004740  17958.870008   -526.629603  6  4  4  94       
PG03  19510.293708  -6785.261776  16486.902259     -2.331673  7  5  2  67       
PG04  25892.083848    404.980171  -6198.836130    217.682827  9  5  5  84       
PG05 -13944.519107  -6360.747805 -21878.908309   -151.052830  5  6  3 124       
PG06  -5453.824294 -25275.350880   5916.614016    501.231612  5  4  3  99       
PG07   9211.626872 -14695.431089 -19503.581131      8.883011  6  2  5  90       
PG08  26082.408405   5300.832001  -3110.521799   -152.955326  6  6  3  67       
PG09  20203.607821  -8295.910461 -15244.972546      2.261864  5  5  4  87       
PG10  -8605.897123  22547.177451  10894.067554    -62.090203  4  5  4 111       
PG11 -12064.011156 -22940.721923  -5902.545324   -467.517884  5  6  4  82       
PG12 -19739.109889   4129.498507  16969.889850   -448.881017  4  7  6 126       
PG13 -20419.409137 -13625.892746 -10611.870688    597.152302  5  9  5  96       
PG14  11930.556063 -22444.520501   7410.133354    248.204724  8  8  6 138       
PG15 -26412.595845  -2484.259902  -3294.962171     98.863781  6  6  5  94       
PG16   9170.278664  12423.684726 -21894.100154   -418.984777  6  6  7 105       
PG17   6473.590034 -14023.150462  22056.151999    723.046713  3  5  4  74       
PG18  -7944.531156  16285.633382 -19341.083387   -484.085725  7  9  7 106       
PG19  -3993.768504 -15785.470751  20861.038213    401.321984  5  6  5  83       
PG20  -5697.046168 -17750.947806 -18936.674101    400.739490  5  8  4  94       
PG21  18440.391020  12523.080205  15622.157289    143.799145  5  5  3 106       
PG22   6950.487406 -21701.760419  14326.500649     80.694048  5  8  6  72       
PG23 -16655.847148  20500.045709  -1533.139642    101.884496  7  9  6 105       
PG24 -18347.147704  -8019.888729  17251.122029   -375.326799  4  4  5 114       
PG25 -19424.333530  15851.992981   8012.081874    478.142001  8  8  6 117       
PG26   2443.387863  19663.019735 -17652.407752    215.406711  4  6  4  92       
PG27  18395.349689  12940.515384 -14710.784311    -72.350316  5  4  4  95       
PG28   4915.885562  24921.807913   7737.017395    -50.197127  4  6  5 115       
PG29 -21121.537768   5748.274481 -15158.302226   -610.186670  5  4  5 113       
PG30   1793.812011 -22666.113089 -13389.477767   -466.380095  7  6  3 110       
PG31   9843.773285  24405.195243  -1127.072003   -225.907425  6  7  3 105       
PG32  -1206.703962  15283.317607  21876.527567   -587.741375  3  5  3 102       
*  2023 11 20  4 15  0.00000000
PG01  16733.579793   6173.506604  19453.141108    163.226889  8  7    126       
PG02  18864.947463  10455.404254  16139.020016   -526.624922  6  5  3  99       
PG03  18409.496282  -5094.416457  18260.751894     -2.308401  7  5  2  79       
PG04  26400.040959    716.783978  -3415.782306    217.692158  8  5  5  74       
PG05 -12571.962649  -8413.839012 -22010.110651   -151.054598  4  5  3 121       
PG06  -4979.573856 -24578.522677   8671.836506    501.222349  5  4  3  88       
PG07  10274.764984 -12542.047490 -20472.903720      8.873845  6  2  5  86       
PG08  25565.219214   5488.757178  -5871.504282   -152.958266  6  6  4  73       
PG09  21785.173243  -7953.114646 -13089.572316      2.272051  5  5  5  81       
PG10  -9405.577097  23297.036447   8267.884234    -62.091153  4  6  4 112       
PG11 -12028.391579 -23505.823468  -3101.059009   -467.532443  5  6  4  94       
PG12 -18495.504930   2446.514085  18599.042838   -448.884574  3  7  5 116       
PG13 -19102.262257 -13462.310261 -13024.543038    597.155983  5  9  5  92       
PG14  12591.087373 -22808.036945   4685.478899    248.214306  9  8  7 115       
PG15 -25944.360395  -2802.215478  -6016.361219     98.867223  6  6  5 105       
PG16   7523.885868  14190.569146 -21395.363991   -418.978356  6  6  8 114       
PG17   8826.068244 -13569.400475  21517.870987    723.046153  4  5  4  83       
PG18  -8903.125571  14208.196140 -20539.867373   -484.095366  7  9  7 104       
PG19  -1588.247866 -15285.497784  21508.082176    401.326781  5  6  5  92       
PG20  -4630.197481 -19548.894135 -17415.558547    400.737721  5  8  4  92       
PG21  19075.875822  13948.388259  13514.094884    143.798453  5  6  3 106       
PG22   8032.956118 -22657.479791  12051.349297     80.687825  5  8  4  66       
PG23 -16641.768833  20092.049329  -4404.748622    101.890318  7  9  7  96       
PG24 -19101.520182  -9811.776445  15493.683215   -375.334707  5  4  5 106       
PG25 -18999.513697  14784.372366  10584.115327    478.143401  8  7  7 115       
PG26   1228.263033  21163.986764 -15913.254645    215.404318  4  7  4  94       
PG27  16651.485017  12888.354870 -16695.881480    -72.354982  4  4  4 102       
PG28   4263.090178  24083.294340  10334.980674    -50.204954  3  6  5 115       
PG29 -22657.529555   5287.581394 -12948.957351   -610.186385  4  4  5 108       
PG30   2693.651182 -21218.005930 -15459.010683   -466.376488  6  6  3 106       
PG31   9537.880446  24467.684696   1739.934454   -225.907625  6  7  3 111       
PG32  -3650.201456  15007.547934  21776.826901   -587.745293  4  6  3  97       
EOF
